{
  "type": "FeatureCollection",
  "features": [
    {
      "type": "Feature",
      "properties": {
        "norad_id": 43823,
        "name": "GEO-KOMPSAT-2A",
        "group": "weather",
        "lat": 0.012661356053775297,
        "lon": 48.909451705706424,
        "alt_km": 35789.26706213581,
        "timestamp": "2025-12-03T13:52:09.208445+00:00",
        "meta_object_name": "GEO-KOMPSAT-2A",
        "meta_object_id": "2018-100A",
        "meta_epoch": "2025-12-02T22:57:21.193920",
        "meta_mean_motion": 1.00268627,
        "meta_eccentricity": 5.345e-05,
        "meta_inclination": 0.0243,
        "meta_ra_of_asc_node": 71.4005,
        "meta_arg_of_pericenter": 145.3894,
        "meta_mean_anomaly": 327.8406,
        "meta_ephemeris_type": 0,
        "meta_classification_type": "U",
        "meta_norad_cat_id": 43823,
        "meta_element_set_no": 999,
        "meta_rev_at_epoch": 2566,
        "meta_bstar": 0,
        "meta_mean_motion_dot": 0,
        "meta_mean_motion_ddot": 0,
        "tle_line1": "1 43823U 18100A   25336.95649530  .00000000  00000+0  00000+0 0  9998",
        "tle_line2": "2 43823   0.0243  71.4005 0000534 145.3894 327.8406  1.00268627 25665"
      },
      "geometry": {
        "type": "Point",
        "coordinates": [
          48.909451705706424,
          0.012661356053775297
        ]
      }
    },
    {
      "type": "Feature",
      "properties": {
        "norad_id": 44387,
        "name": "METEOR-M2 2",
        "group": "weather",
        "lat": -43.99433555005299,
        "lon": 128.49705107176922,
        "alt_km": 817.1972034422206,
        "timestamp": "2025-12-03T13:52:09.208457+00:00",
        "meta_object_name": "METEOR-M2 2",
        "meta_object_id": "2019-038A",
        "meta_epoch": "2025-12-03T07:45:36.048096",
        "meta_mean_motion": 14.24285004,
        "meta_eccentricity": 8.71e-05,
        "meta_inclination": 98.8963,
        "meta_ra_of_asc_node": 316.9374,
        "meta_arg_of_pericenter": 167.8561,
        "meta_mean_anomaly": 192.2639,
        "meta_ephemeris_type": 0,
        "meta_classification_type": "U",
        "meta_norad_cat_id": 44387,
        "meta_element_set_no": 999,
        "meta_rev_at_epoch": 33341,
        "meta_bstar": 0.00013791593,
        "meta_mean_motion_dot": 2.73e-06,
        "meta_mean_motion_ddot": 0,
        "tle_line1": "1 44387U 19038A   25337.32333389  .00000273  00000+0  13792-3 0  9997",
        "tle_line2": "2 44387  98.8963 316.9374 0000871 167.8561 192.2639 14.24285004333410"
      },
      "geometry": {
        "type": "Point",
        "coordinates": [
          128.49705107176922,
          -43.99433555005299
        ]
      }
    },
    {
      "type": "Feature",
      "properties": {
        "norad_id": 47719,
        "name": "ARKTIKA-M 1",
        "group": "weather",
        "lat": -50.01396739582204,
        "lon": -57.68535578245308,
        "alt_km": 1537.625618131644,
        "timestamp": "2025-12-03T13:52:09.208471+00:00",
        "meta_object_name": "ARKTIKA-M 1",
        "meta_object_id": "2021-016A",
        "meta_epoch": "2025-12-01T02:41:41.634816",
        "meta_mean_motion": 2.00613156,
        "meta_eccentricity": 0.71974708,
        "meta_inclination": 63.1756,
        "meta_ra_of_asc_node": 85.6045,
        "meta_arg_of_pericenter": 269.084,
        "meta_mean_anomaly": 15.7076,
        "meta_ephemeris_type": 0,
        "meta_classification_type": "U",
        "meta_norad_cat_id": 47719,
        "meta_element_set_no": 999,
        "meta_rev_at_epoch": 3481,
        "meta_bstar": 0,
        "meta_mean_motion_dot": -1.2e-07,
        "meta_mean_motion_ddot": 0,
        "tle_line1": "1 47719U 21016A   25335.11228744 -.00000012  00000+0  00000+0 0  9997",
        "tle_line2": "2 47719  63.1756  85.6045 7197470 269.0840  15.7076  2.00613156 34816"
      },
      "geometry": {
        "type": "Point",
        "coordinates": [
          -57.68535578245308,
          -50.01396739582204
        ]
      }
    },
    {
      "type": "Feature",
      "properties": {
        "norad_id": 49008,
        "name": "FENGYUN 3E",
        "group": "weather",
        "lat": -30.48144764849766,
        "lon": -16.592521963030723,
        "alt_km": 831.1424918870143,
        "timestamp": "2025-12-03T13:52:09.208486+00:00",
        "meta_object_name": "FENGYUN 3E",
        "meta_object_id": "2021-062A",
        "meta_epoch": "2025-12-03T07:14:57.753312",
        "meta_mean_motion": 14.19877969,
        "meta_eccentricity": 7.61e-05,
        "meta_inclination": 98.7476,
        "meta_ra_of_asc_node": 337.9352,
        "meta_arg_of_pericenter": 325.4267,
        "meta_mean_anomaly": 34.686,
        "meta_ephemeris_type": 0,
        "meta_classification_type": "U",
        "meta_norad_cat_id": 49008,
        "meta_element_set_no": 999,
        "meta_rev_at_epoch": 22878,
        "meta_bstar": 4.7022925e-05,
        "meta_mean_motion_dot": 5.6e-07,
        "meta_mean_motion_ddot": 0,
        "tle_line1": "1 49008U 21062A   25337.30205733  .00000056  00000+0  47023-4 0  9995",
        "tle_line2": "2 49008  98.7476 337.9352 0000761 325.4267  34.6860 14.19877969228784"
      },
      "geometry": {
        "type": "Point",
        "coordinates": [
          -16.592521963030723,
          -30.48144764849766
        ]
      }
    },
    {
      "type": "Feature",
      "properties": {
        "norad_id": 51850,
        "name": "GOES 18",
        "group": "weather",
        "lat": 0.004524335674386941,
        "lon": 143.67018302495654,
        "alt_km": 35789.02626678386,
        "timestamp": "2025-12-03T13:52:09.208498+00:00",
        "meta_object_name": "GOES 18",
        "meta_object_id": "2022-021A",
        "meta_epoch": "2025-12-03T06:15:22.453056",
        "meta_mean_motion": 1.00270211,
        "meta_eccentricity": 7.378e-05,
        "meta_inclination": 0.0018,
        "meta_ra_of_asc_node": 79.492,
        "meta_arg_of_pericenter": 209.0155,
        "meta_mean_anomaly": 100.6869,
        "meta_ephemeris_type": 0,
        "meta_classification_type": "U",
        "meta_norad_cat_id": 51850,
        "meta_element_set_no": 999,
        "meta_rev_at_epoch": 462,
        "meta_bstar": 0,
        "meta_mean_motion_dot": 1.16e-06,
        "meta_mean_motion_ddot": 0,
        "tle_line1": "1 51850U 22021A   25337.26067654  .00000116  00000+0  00000+0 0  9998",
        "tle_line2": "2 51850   0.0018  79.4920 0000737 209.0155 100.6869  1.00270211  4626"
      },
      "geometry": {
        "type": "Point",
        "coordinates": [
          143.67018302495654,
          0.004524335674386941
        ]
      }
    },
    {
      "type": "Feature",
      "properties": {
        "norad_id": 54234,
        "name": "NOAA 21 (JPSS-2)",
        "group": "weather",
        "lat": -12.607903976768766,
        "lon": -84.02609686164476,
        "alt_km": 830.6741983263564,
        "timestamp": "2025-12-03T13:52:09.208509+00:00",
        "meta_object_name": "NOAA 21 (JPSS-2)",
        "meta_object_id": "2022-150A",
        "meta_epoch": "2025-12-03T07:09:45.037152",
        "meta_mean_motion": 14.19519873,
        "meta_eccentricity": 0.00025426,
        "meta_inclination": 98.7448,
        "meta_ra_of_asc_node": 273.7251,
        "meta_arg_of_pericenter": 55.6114,
        "meta_mean_anomaly": 304.5302,
        "meta_ephemeris_type": 0,
        "meta_classification_type": "U",
        "meta_norad_cat_id": 54234,
        "meta_element_set_no": 999,
        "meta_rev_at_epoch": 15875,
        "meta_bstar": 9.4686036e-05,
        "meta_mean_motion_dot": 1.56e-06,
        "meta_mean_motion_ddot": 0,
        "tle_line1": "1 54234U 22150A   25337.29843793  .00000156  00000+0  94686-4 0  9991",
        "tle_line2": "2 54234  98.7448 273.7251 0002542  55.6114 304.5302 14.19519873158753"
      },
      "geometry": {
        "type": "Point",
        "coordinates": [
          -84.02609686164476,
          -12.607903976768766
        ]
      }
    },
    {
      "type": "Feature",
      "properties": {
        "norad_id": 54743,
        "name": "METEOSAT-12 (MTG-I1)",
        "group": "weather",
        "lat": -0.6913160114775898,
        "lon": -79.59992760893319,
        "alt_km": 35780.44622568032,
        "timestamp": "2025-12-03T13:52:09.208521+00:00",
        "meta_object_name": "METEOSAT-12 (MTG-I1)",
        "meta_object_id": "2022-170C",
        "meta_epoch": "2025-12-03T06:54:18.722880",
        "meta_mean_motion": 1.00273639,
        "meta_eccentricity": 0.00014958,
        "meta_inclination": 0.7174,
        "meta_ra_of_asc_node": 29.9886,
        "meta_arg_of_pericenter": 215.4423,
        "meta_mean_anomaly": 290.2363,
        "meta_ephemeris_type": 0,
        "meta_classification_type": "U",
        "meta_norad_cat_id": 54743,
        "meta_element_set_no": 999,
        "meta_rev_at_epoch": 1101,
        "meta_bstar": 0,
        "meta_mean_motion_dot": 1.2e-07,
        "meta_mean_motion_ddot": 0,
        "tle_line1": "1 54743U 22170C   25337.28771670  .00000012  00000+0  00000+0 0  9994",
        "tle_line2": "2 54743   0.7174  29.9886 0001495 215.4423 290.2363  1.00273639 11015"
      },
      "geometry": {
        "type": "Point",
        "coordinates": [
          -79.59992760893319,
          -0.6913160114775898
        ]
      }
    }
  ]
}